{"type": "FeatureCollection", "features": [ {"type": "Feature", "properties": {"norad_id": 33153, "name": "INTELSAT 25 (IS-25)", "group": "intelsat", "lat": -1.5639627806566287, "lon": 37.803021998710186, "alt_km": 35799.279820419826, "timestamp": "2025-12-19T22:41:52.046993+00:00", "meta": {"OBJECT_NAME": "INTELSAT 25 (IS-25)", "OBJECT_ID": "2008-034A", "EPOCH": "2025-12-19T18:15:00.764064", "MEAN_MOTION": 1.00270284, "ECCENTRICITY": 0.0004793, "INCLINATION": 2.2448, "RA_OF_ASC_NODE": 82.5753, "ARG_OF_PERICENTER": 187.0495, "MEAN_ANOMALY": 61.2247, "EPHEMERIS_TYPE": 0, "CLASSIFICATION_TYPE": "U", "NORAD_CAT_ID": 33153, "ELEMENT_SET_NO": 999, "REV_AT_EPOCH": 6389, "BSTAR": 0, "MEAN_MOTION_DOT": -2.02e-06, "MEAN_MOTION_DDOT": 0}, "tle": {"line1": "1 33153U 08034A   25353.76042551 -.00000202  00000+0  00000+0 0  9991", "line2": "2 33153   2.2448  82.5753 0004793 187.0495  61.2247  1.00270284 63896"}}, "geometry": {"type": "Point", "coordinates": [37.803021998710186, -1.5639627806566287]}}, {"type": "Feature", "properties": {"norad_id": 33376, "name": "GALAXY 19 (G-19)", "group": "intelsat", "lat": 0.0047362934719804, "lon": -27.730896453960092, "alt_km": 35780.82008135958, "timestamp": "2025-12-19T22:41:52.047005+00:00", "meta": {"OBJECT_NAME": "GALAXY 19 (G-19)", "OBJECT_ID": "2008-045A", "EPOCH": "2025-12-19T11:21:27.498816", "MEAN_MOTION": 1.00271614, "ECCENTRICITY": 0.0002508, "INCLINATION": 0.0157, "RA_OF_ASC_NODE": 292.5517, "ARG_OF_PERICENTER": 339.8224, "MEAN_ANOMALY": 249.3126, "EPHEMERIS_TYPE": 0, "CLASSIFICATION_TYPE": "U", "NORAD_CAT_ID": 33376, "ELEMENT_SET_NO": 999, "REV_AT_EPOCH": 6310, "BSTAR": 0, "MEAN_MOTION_DOT": -1.15e-06, "MEAN_MOTION_DDOT": 0}, "tle": {"line1": "1 33376U 08045A   25353.47323494 -.00000115  00000+0  00000+0 0  9999", "line2": "2 33376   0.0157 292.5517 0002508 339.8224 249.3126  1.00271614 63103"}}, "geometry": {"type": "Point", "coordinates": [-27.730896453960092, 0.0047362934719804]}}, {"type": "Feature", "properties": {"norad_id": 35493, "name": "FM-5", "group": "intelsat", "lat": 0.013850759847808486, "lon": -16.90122223252477, "alt_km": 35791.698324573525, "timestamp": "2025-12-19T22:41:52.047017+00:00", "meta": {"OBJECT_NAME": "FM-5", "OBJECT_ID": "2009-034A", "EPOCH": "2025-12-19T11:28:13.399104", "MEAN_MOTION": 1.00269894, "ECCENTRICITY": 0.0001213, "INCLINATION": 0.0218, "RA_OF_ASC_NODE": 291.9988, "ARG_OF_PERICENTER": 224.3266, "MEAN_ANOMALY": 17.9165, "EPHEMERIS_TYPE": 0, "CLASSIFICATION_TYPE": "U", "NORAD_CAT_ID": 35493, "ELEMENT_SET_NO": 999, "REV_AT_EPOCH": 4484, "BSTAR": 0, "MEAN_MOTION_DOT": -1.75e-06, "MEAN_MOTION_DDOT": 0}, "tle": {"line1": "1 35493U 09034A   25353.47793286 -.00000175  00000+0  00000+0 0  9996", "line2": "2 35493   0.0218 291.9988 0001213 224.3266  17.9165  1.00269894 44843"}}, "geometry": {"type": "Point", "coordinates": [-16.90122223252477, 0.013850759847808486]}}, {"type": "Feature", "properties": {"norad_id": 36097, "name": "INTELSAT 14 (IS-14)", "group": "intelsat", "lat": 0.021637581793067042, "lon": 24.281415799127682, "alt_km": 35788.86831284546, "timestamp": "2025-12-19T22:41:52.047028+00:00", "meta": {"OBJECT_NAME": "INTELSAT 14 (IS-14)", "OBJECT_ID": "2009-064A", "EPOCH": "2025-12-19T16:28:17.361120", "MEAN_MOTION": 1.00271255, "ECCENTRICITY": 0.0002437, "INCLINATION": 0.0128, "RA_OF_ASC_NODE": 351.0941, "ARG_OF_PERICENTER": 288.6596, "MEAN_ANOMALY": 10.8613, "EPHEMERIS_TYPE": 0, "CLASSIFICATION_TYPE": "U", "NORAD_CAT_ID": 36097, "ELEMENT_SET_NO": 999, "REV_AT_EPOCH": 5880, "BSTAR": 0, "MEAN_MOTION_DOT": -2.49e-06, "MEAN_MOTION_DDOT": 0}, "tle": {"line1": "1 36097U 09064A   25353.68631205 -.00000249  00000+0  00000+0 0  9997", "line2": "2 36097   0.0128 351.0941 0002437 288.6596  10.8613  1.00271255 58804"}}, "geometry": {"type": "Point", "coordinates": [24.281415799127682, 0.021637581793067042]}}, {"type": "Feature", "properties": {"norad_id": 36106, "name": "INTELSAT 15 (IS-15)", "group": "intelsat", "lat": 0.019531688585556695, "lon": 154.38431048428455, "alt_km": 35791.179663091716, "timestamp": "2025-12-19T22:41:52.047040+00:00", "meta": {"OBJECT_NAME": "INTELSAT 15 (IS-15)", "OBJECT_ID": "2009-067A", "EPOCH": "2025-12-19T18:35:47.432256", "MEAN_MOTION": 1.00272137, "ECCENTRICITY": 0.0002137, "INCLINATION": 0.0167, "RA_OF_ASC_NODE": 5.5856, "ARG_OF_PERICENTER": 273.8855, "MEAN_ANOMALY": 173.2558, "EPHEMERIS_TYPE": 0, "CLASSIFICATION_TYPE": "U", "NORAD_CAT_ID": 36106, "ELEMENT_SET_NO": 999, "REV_AT_EPOCH": 3943, "BSTAR": 0, "MEAN_MOTION_DOT": -1.61e-06, "MEAN_MOTION_DDOT": 0}, "tle": {"line1": "1 36106U 09067A   25353.77485454 -.00000161  00000+0  00000+0 0  9997", "line2": "2 36106   0.0167   5.5856 0002137 273.8855 173.2558  1.00272137 39435"}}, "geometry": {"type": "Point", "coordinates": [154.38431048428455, 0.019531688585556695]}}, {"type": "Feature", "properties": {"norad_id": 36131, "name": "DIRECTV 12", "group": "intelsat", "lat": -0.008164963544014208, "lon": -33.46342842194426, "alt_km": 35783.37192137122, "timestamp": "2025-12-19T22:41:52.047052+00:00", "meta": {"OBJECT_NAME": "DIRECTV 12", "OBJECT_ID": "2009-075A", "EPOCH": "2025-12-19T13:24:30.815136", "MEAN_MOTION": 1.00274473, "ECCENTRICITY": 4.78e-05, "INCLINATION": 0.0149, "RA_OF_ASC_NODE": 93.7995, "ARG_OF_PERICENTER": 244.7113, "MEAN_ANOMALY": 208.3134, "EPHEMERIS_TYPE": 0, "CLASSIFICATION_TYPE": "U", "NORAD_CAT_ID": 36131, "ELEMENT_SET_NO": 999, "REV_AT_EPOCH": 4475, "BSTAR": 0, "MEAN_MOTION_DOT": -8e-07, "MEAN_MOTION_DDOT": 0}, "tle": {"line1": "1 36131U 09075A   25353.55868999 -.00000080  00000+0  00000+0 0  9999", "line2": "2 36131   0.0149  93.7995 0000478 244.7113 208.3134  1.00274473 44752"}}, "geometry": {"type": "Point", "coordinates": [-33.46342842194426, -0.008164963544014208]}}, {"type": "Feature", "properties": {"norad_id": 36397, "name": "INTELSAT 16 (IS-16)", "group": "intelsat", "lat": 0.005669967725815638, "lon": -6.92623025767253, "alt_km": 35785.04316679907, "timestamp": "2025-12-19T22:41:52.047063+00:00", "meta": {"OBJECT_NAME": "INTELSAT 16 (IS-16)", "OBJECT_ID": "2010-006A", "EPOCH": "2025-12-19T18:02:02.008032", "MEAN_MOTION": 1.00272026, "ECCENTRICITY": 0.0001813, "INCLINATION": 0.0105, "RA_OF_ASC_NODE": 337.5743, "ARG_OF_PERICENTER": 292.9337, "MEAN_ANOMALY": 12.4053, "EPHEMERIS_TYPE": 0, "CLASSIFICATION_TYPE": "U", "NORAD_CAT_ID": 36397, "ELEMENT_SET_NO": 999, "REV_AT_EPOCH": 5785, "BSTAR": 0, "MEAN_MOTION_DOT": -2.2e-06, "MEAN_MOTION_DDOT": 0}, "tle": {"line1": "1 36397U 10006A   25353.75141213 -.00000220  00000+0  00000+0 0  9990", "line2": "2 36397   0.0105 337.5743 0001813 292.9337  12.4053  1.00272026 57856"}}, "geometry": {"type": "Point", "coordinates": [-6.92623025767253, 0.005669967725815638]}}, {"type": "Feature", "properties": {"norad_id": 37185, "name": "XM-5", "group": "intelsat", "lat": 0.02496160077069144, "lon": -45.93777119167731, "alt_km": 35793.73537687003, "timestamp": "2025-12-19T22:41:52.047075+00:00", "meta": {"OBJECT_NAME": "XM-5", "OBJECT_ID": "2010-053A", "EPOCH": "2025-12-19T12:08:14.348832", "MEAN_MOTION": 1.00273261, "ECCENTRICITY": 0.0001971, "INCLINATION": 0.0647, "RA_OF_ASC_NODE": 271.3919, "ARG_OF_PERICENTER": 235.6232, "MEAN_ANOMALY": 8.2094, "EPHEMERIS_TYPE": 0, "CLASSIFICATION_TYPE": "U", "NORAD_CAT_ID": 37185, "ELEMENT_SET_NO": 999, "REV_AT_EPOCH": 5568, "BSTAR": 0, "MEAN_MOTION_DOT": 1e-08, "MEAN_MOTION_DDOT": 0}, "tle": {"line1": "1 37185U 10053A   25353.50572163  .00000001  00000+0  00000+0 0  9999", "line2": "2 37185   0.0647 271.3919 0001971 235.6232   8.2094  1.00273261 55685"}}, "geometry": {"type": "Point", "coordinates": [-45.93777119167731, 0.02496160077069144]}}, {"type": "Feature", "properties": {"norad_id": 37238, "name": "INTELSAT 17 (IS-17)", "group": "intelsat", "lat": 0.03519737973695812, "lon": 135.20230838649547, "alt_km": 35796.76888347638, "timestamp": "2025-12-19T22:41:52.047087+00:00", "meta": {"OBJECT_NAME": "INTELSAT 17 (IS-17)", "OBJECT_ID": "2010-065B", "EPOCH": "2025-12-19T17:06:52.666848", "MEAN_MOTION": 1.00271319, "ECCENTRICITY": 0.0002785, "INCLINATION": 0.0273, "RA_OF_ASC_NODE": 66.8561, "ARG_OF_PERICENTER": 222.2913, "MEAN_ANOMALY": 122.103, "EPHEMERIS_TYPE": 0, "CLASSIFICATION_TYPE": "U", "NORAD_CAT_ID": 37238, "ELEMENT_SET_NO": 999, "REV_AT_EPOCH": 5144, "BSTAR": 0, "MEAN_MOTION_DOT": 0, "MEAN_MOTION_DDOT": 0}, "tle": {"line1": "1 37238U 10065B   25353.71310957  .00000000  00000+0  00000+0 0  9994", "line2": "2 37238   0.0273  66.8561 0002785 222.2913 122.1030  1.00271319 51449"}}, "geometry": {"type": "Point", "coordinates": [135.20230838649547, 0.03519737973695812]}}, {"type": "Feature", "properties": {"norad_id": 37392, "name": "INTELSAT 28 (IS-28)", "group": "intelsat", "lat": -0.9692380823514092, "lon": 37.59578813763651, "alt_km": 35795.65848277274, "timestamp": "2025-12-19T22:41:52.047098+00:00", "meta": {"OBJECT_NAME": "INTELSAT 28 (IS-28)", "OBJECT_ID": "2011-016A", "EPOCH": "2025-12-19T18:14:53.275776", "MEAN_MOTION": 1.00270135, "ECCENTRICITY": 0.0003675, "INCLINATION": 1.3417, "RA_OF_ASC_NODE": 84.9812, "ARG_OF_PERICENTER": 187.4914, "MEAN_ANOMALY": 58.1626, "EPHEMERIS_TYPE": 0, "CLASSIFICATION_TYPE": "U", "NORAD_CAT_ID": 37392, "ELEMENT_SET_NO": 999, "REV_AT_EPOCH": 5148, "BSTAR": 0, "MEAN_MOTION_DOT": -2.02e-06, "MEAN_MOTION_DDOT": 0}, "tle": {"line1": "1 37392U 11016A   25353.76033884 -.00000202  00000+0  00000+0 0  9993", "line2": "2 37392   1.3417  84.9812 0003675 187.4914  58.1626  1.00270135 51484"}}, "geometry": {"type": "Point", "coordinates": [37.59578813763651, -0.9692380823514092]}}]}